[
  {
    "COMMENT": "GENERATED VIA SPACETRACK.ORG API",
    "ORIGINATOR": "18 SPCS",
    "NORAD_CAT_ID": "46984",
    "OBJECT_NAME": "S6 MICHAEL FREILICH",
    "OBJECT_TYPE": "PAYLOAD",
    "CLASSIFICATION_TYPE": "U",
    "INTLDES": "20086A",
    "EPOCH": "2023-08-09 05:24:18",
    "EPOCH_MICROSECONDS": "18720",
    "MEAN_MOTION": "12.80928873",
    "ECCENTRICITY": "0.0007967",
    "INCLINATION": "66.0413",
    "RA_OF_ASC_NODE": "141.2966",
    "ARG_OF_PERICENTER": "269.0041",
    "MEAN_ANOMALY": "91.0062",
    "EPHEMERIS_TYPE": "0",
    "ELEMENT_SET_NO": "999",
    "REV_AT_EPOCH": "12687",
    "BSTAR": "0.000020786",
    "MEAN_MOTION_DOT": "-0.00000056",
    "MEAN_MOTION_DDOT": "0",
    "FILE": "3975935",
    "TLE_LINE0": "0 S6 MICHAEL FREILICH",
    "TLE_LINE1": "1 46984U 20086A   23221.22520855 -.00000056  00000-0  20786-4 0  9995",
    "TLE_LINE2": "2 46984  66.0413 141.2966 0007967 269.0041  91.0062 12.80928873126873",
    "OBJECT_ID": "2020-086A",
    "OBJECT_NUMBER": "46984",
    "SEMIMAJOR_AXIS": "7715.875",
    "PERIOD": "112.418",
    "APOGEE": "1343.887",
    "PERIGEE": "1331.592",
    "DECAYED": "0"
  },
  {
    "COMMENT": "GENERATED VIA SPACETRACK.ORG API",
    "ORIGINATOR": "18 SPCS",
    "NORAD_CAT_ID": "46984",
    "OBJECT_NAME": "S6 MICHAEL FREILICH",
    "OBJECT_TYPE": "PAYLOAD",
    "CLASSIFICATION_TYPE": "U",
    "INTLDES": "20086A",
    "EPOCH": "2023-08-10 11:23:10",
    "EPOCH_MICROSECONDS": "281984",
    "MEAN_MOTION": "12.80928866",
    "ECCENTRICITY": "0.0007958",
    "INCLINATION": "66.0414",
    "RA_OF_ASC_NODE": "138.7022",
    "ARG_OF_PERICENTER": "268.9767",
    "MEAN_ANOMALY": "91.0336",
    "EPHEMERIS_TYPE": "0",
    "ELEMENT_SET_NO": "999",
    "REV_AT_EPOCH": "12703",
    "BSTAR": "-0.000024978",
    "MEAN_MOTION_DOT": "-0.00000067",
    "MEAN_MOTION_DDOT": "0",
    "FILE": "3977122",
    "TLE_LINE0": "0 S6 MICHAEL FREILICH",
    "TLE_LINE1": "1 46984U 20086A   23222.47442456 -.00000067  00000-0 -24978-4 0  9993",
    "TLE_LINE2": "2 46984  66.0414 138.7022 0007958 268.9767  91.0336 12.80928866127036",
    "OBJECT_ID": "2020-086A",
    "OBJECT_NUMBER": "46984",
    "SEMIMAJOR_AXIS": "7715.875",
    "PERIOD": "112.418",
    "APOGEE": "1343.880",
    "PERIGEE": "1331.599",
    "DECAYED": "0"
  },
  {
    "COMMENT": "GENERATED VIA SPACETRACK.ORG API",
    "ORIGINATOR": "18 SPCS",
    "NORAD_CAT_ID": "46984",
    "OBJECT_NAME": "S6 MICHAEL FREILICH",
    "OBJECT_TYPE": "PAYLOAD",
    "CLASSIFICATION_TYPE": "U",
    "INTLDES": "20086A",
    "EPOCH": "2023-08-11 17:22:02",
    "EPOCH_MICROSECONDS": "549568",
    "MEAN_MOTION": "12.80928875",
    "ECCENTRICITY": "0.0007943",
    "INCLINATION": "66.0413",
    "RA_OF_ASC_NODE": "136.1077",
    "ARG_OF_PERICENTER": "268.8898",
    "MEAN_ANOMALY": "91.1207",
    "EPHEMERIS_TYPE": "0",
    "ELEMENT_SET_NO": "999",
    "REV_AT_EPOCH": "12719",
    "BSTAR": "-0.000043689",
    "MEAN_MOTION_DOT": "-0.00000071",
    "MEAN_MOTION_DDOT": "0",
    "FILE": "3978019",
    "TLE_LINE0": "0 S6 MICHAEL FREILICH",
    "TLE_LINE1": "1 46984U 20086A   23223.72364062 -.00000071  00000-0 -43689-4 0  9993",
    "TLE_LINE2": "2 46984  66.0413 136.1077 0007943 268.8898  91.1207 12.80928875127190",
    "OBJECT_ID": "2020-086A",
    "OBJECT_NUMBER": "46984",
    "SEMIMAJOR_AXIS": "7715.875",
    "PERIOD": "112.418",
    "APOGEE": "1343.868",
    "PERIGEE": "1331.611",
    "DECAYED": "0"
  },
  {
    "COMMENT": "GENERATED VIA SPACETRACK.ORG API",
    "ORIGINATOR": "18 SPCS",
    "NORAD_CAT_ID": "46984",
    "OBJECT_NAME": "S6 MICHAEL FREILICH",
    "OBJECT_TYPE": "PAYLOAD",
    "CLASSIFICATION_TYPE": "U",
    "INTLDES": "20086A",
    "EPOCH": "2023-08-12 17:43:37",
    "EPOCH_MICROSECONDS": "507584",
    "MEAN_MOTION": "12.80928894",
    "ECCENTRICITY": "0.000794",
    "INCLINATION": "66.0413",
    "RA_OF_ASC_NODE": "133.9997",
    "ARG_OF_PERICENTER": "268.8707",
    "MEAN_ANOMALY": "91.1399",
    "EPHEMERIS_TYPE": "0",
    "ELEMENT_SET_NO": "999",
    "REV_AT_EPOCH": "12732",
    "BSTAR": "-0.000050723",
    "MEAN_MOTION_DOT": "-0.00000073",
    "MEAN_MOTION_DDOT": "0",
    "FILE": "3978849",
    "TLE_LINE0": "0 S6 MICHAEL FREILICH",
    "TLE_LINE1": "1 46984U 20086A   23224.73862856 -.00000073  00000-0 -50723-4 0  9998",
    "TLE_LINE2": "2 46984  66.0413 133.9997 0007940 268.8707  91.1399 12.80928894127320",
    "OBJECT_ID": "2020-086A",
    "OBJECT_NUMBER": "46984",
    "SEMIMAJOR_AXIS": "7715.875",
    "PERIOD": "112.418",
    "APOGEE": "1343.866",
    "PERIGEE": "1331.613",
    "DECAYED": "0"
  },
  {
    "COMMENT": "GENERATED VIA SPACETRACK.ORG API",
    "ORIGINATOR": "18 SPCS",
    "NORAD_CAT_ID": "46984",
    "OBJECT_NAME": "S6 MICHAEL FREILICH",
    "OBJECT_TYPE": "PAYLOAD",
    "CLASSIFICATION_TYPE": "U",
    "INTLDES": "20086A",
    "EPOCH": "2023-08-13 19:57:38",
    "EPOCH_MICROSECONDS": "243232",
    "MEAN_MOTION": "12.80928883",
    "ECCENTRICITY": "0.0007938",
    "INCLINATION": "66.0412",
    "RA_OF_ASC_NODE": "131.7295",
    "ARG_OF_PERICENTER": "268.8582",
    "MEAN_ANOMALY": "91.1524",
    "EPHEMERIS_TYPE": "0",
    "ELEMENT_SET_NO": "999",
    "REV_AT_EPOCH": "12746",
    "BSTAR": "-0.000027907",
    "MEAN_MOTION_DOT": "-0.00000067",
    "MEAN_MOTION_DDOT": "0",
    "FILE": "3979530",
    "TLE_LINE0": "0 S6 MICHAEL FREILICH",
    "TLE_LINE1": "1 46984U 20086A   23225.83169263 -.00000067  00000-0 -27907-4 0  9993",
    "TLE_LINE2": "2 46984  66.0412 131.7295 0007938 268.8582  91.1524 12.80928883127467",
    "OBJECT_ID": "2020-086A",
    "OBJECT_NUMBER": "46984",
    "SEMIMAJOR_AXIS": "7715.875",
    "PERIOD": "112.418",
    "APOGEE": "1343.864",
    "PERIGEE": "1331.615",
    "DECAYED": "0"
  },
  {
    "COMMENT": "GENERATED VIA SPACETRACK.ORG API",
    "ORIGINATOR": "18 SPCS",
    "NORAD_CAT_ID": "46984",
    "OBJECT_NAME": "S6 MICHAEL FREILICH",
    "OBJECT_TYPE": "PAYLOAD",
    "CLASSIFICATION_TYPE": "U",
    "INTLDES": "20086A",
    "EPOCH": "2023-08-15 01:56:30",
    "EPOCH_MICROSECONDS": "517728",
    "MEAN_MOTION": "12.80928897",
    "ECCENTRICITY": "0.0007934",
    "INCLINATION": "66.0412",
    "RA_OF_ASC_NODE": "129.135",
    "ARG_OF_PERICENTER": "268.8292",
    "MEAN_ANOMALY": "91.1814",
    "EPHEMERIS_TYPE": "0",
    "ELEMENT_SET_NO": "999",
    "REV_AT_EPOCH": "12762",
    "BSTAR": "0.000032843",
    "MEAN_MOTION_DOT": "-0.00000053",
    "MEAN_MOTION_DDOT": "0",
    "FILE": "3980685",
    "TLE_LINE0": "0 S6 MICHAEL FREILICH",
    "TLE_LINE1": "1 46984U 20086A   23227.08090877 -.00000053  00000-0  32843-4 0  9995",
    "TLE_LINE2": "2 46984  66.0412 129.1350 0007934 268.8292  91.1814 12.80928897127629",
    "OBJECT_ID": "2020-086A",
    "OBJECT_NUMBER": "46984",
    "SEMIMAJOR_AXIS": "7715.875",
    "PERIOD": "112.418",
    "APOGEE": "1343.861",
    "PERIGEE": "1331.618",
    "DECAYED": "0"
  },
  {
    "COMMENT": "GENERATED VIA SPACETRACK.ORG API",
    "ORIGINATOR": "18 SPCS",
    "NORAD_CAT_ID": "46984",
    "OBJECT_NAME": "S6 MICHAEL FREILICH",
    "OBJECT_TYPE": "PAYLOAD",
    "CLASSIFICATION_TYPE": "U",
    "INTLDES": "20086A",
    "EPOCH": "2023-08-16 02:18:05",
    "EPOCH_MICROSECONDS": "486112",
    "MEAN_MOTION": "12.80928909",
    "ECCENTRICITY": "0.0007939",
    "INCLINATION": "66.0412",
    "RA_OF_ASC_NODE": "127.0269",
    "ARG_OF_PERICENTER": "268.8459",
    "MEAN_ANOMALY": "91.1647",
    "EPHEMERIS_TYPE": "0",
    "ELEMENT_SET_NO": "999",
    "REV_AT_EPOCH": "12775",
    "BSTAR": "0.000060724",
    "MEAN_MOTION_DOT": "-0.00000047",
    "MEAN_MOTION_DDOT": "0",
    "FILE": "3981500",
    "TLE_LINE0": "0 S6 MICHAEL FREILICH",
    "TLE_LINE1": "1 46984U 20086A   23228.09589683 -.00000047  00000-0  60724-4 0  9997",
    "TLE_LINE2": "2 46984  66.0412 127.0269 0007939 268.8459  91.1647 12.80928909127757",
    "OBJECT_ID": "2020-086A",
    "OBJECT_NUMBER": "46984",
    "SEMIMAJOR_AXIS": "7715.875",
    "PERIOD": "112.418",
    "APOGEE": "1343.865",
    "PERIGEE": "1331.614",
    "DECAYED": "0"
  },
  {
    "COMMENT": "GENERATED VIA SPACETRACK.ORG API",
    "ORIGINATOR": "18 SPCS",
    "NORAD_CAT_ID": "46984",
    "OBJECT_NAME": "S6 MICHAEL FREILICH",
    "OBJECT_TYPE": "PAYLOAD",
    "CLASSIFICATION_TYPE": "U",
    "INTLDES": "20086A",
    "EPOCH": "2023-08-17 02:39:40",
    "EPOCH_MICROSECONDS": "452768",
    "MEAN_MOTION": "12.80928953",
    "ECCENTRICITY": "0.0007936",
    "INCLINATION": "66.0412",
    "RA_OF_ASC_NODE": "124.9189",
    "ARG_OF_PERICENTER": "268.8266",
    "MEAN_ANOMALY": "91.184",
    "EPHEMERIS_TYPE": "0",
    "ELEMENT_SET_NO": "999",
    "REV_AT_EPOCH": "12788",
    "BSTAR": "0.0001055",
    "MEAN_MOTION_DOT": "-0.00000037",
    "MEAN_MOTION_DDOT": "0",
    "FILE": "3982713",
    "TLE_LINE0": "0 S6 MICHAEL FREILICH",
    "TLE_LINE1": "1 46984U 20086A   23229.11088487 -.00000037  00000-0  10550-3 0  9997",
    "TLE_LINE2": "2 46984  66.0412 124.9189 0007936 268.8266  91.1840 12.80928953127885",
    "OBJECT_ID": "2020-086A",
    "OBJECT_NUMBER": "46984",
    "SEMIMAJOR_AXIS": "7715.874",
    "PERIOD": "112.418",
    "APOGEE": "1343.863",
    "PERIGEE": "1331.616",
    "DECAYED": "0"
  }
]